STARLINK-5499           
1 55764U 23028Z   25330.83812786 -.00000283  00000+0 -15902-4 0  9993
2 55764  69.9988 123.9153 0003055 268.9628  91.1181 14.98331025151123
STARLINK-5595           
1 55765U 23028AA  25330.84231877 -.00000540  00000+0 -37508-4 0  9993
2 55765  69.9989 123.9306 0003083 268.0613  92.0193 14.98325770151124
STARLINK-5599           
1 55766U 23028AB  25330.81725544 -.00000698  00000+0 -50709-4 0  9992
2 55766  69.9991 123.8421 0002983 268.4919  91.5898 14.98337296151128
STARLINK-5606           
1 55767U 23028AC  25330.84647470  .00000181  00000+0  22933-4 0  9990
2 55767  69.9988 123.9453 0003078 270.7887  89.2919 14.98331724151103
STARLINK-5584           
1 55769U 23028AE  25330.82560742  .00000580  00000+0  56391-4 0  9994
2 55769  69.9986 123.8709 0002965 269.8753  90.2067 14.98342319151121
STARLINK-5557           
1 55770U 23028AF  25330.82143510  .00000351  00000+0  37175-4 0  9991
2 55770  69.9994 123.8575 0002756 267.7970  92.2873 14.98333497151123
STARLINK-5591           
1 55771U 23028AG  25330.81308545 -.00000190  00000+0 -81495-5 0  9990
2 55771  69.9988 123.8265 0002918 266.1023  93.9802 14.98329902151121
STARLINK-5835           
1 55772U 23028AH  25330.86330906  .00000089  00000+0  15236-4 0  9996
2 55772  69.9988 123.6007 0002992 270.5122  89.5694 14.98333860151134
STARLINK-5833           
1 55773U 23028AJ  25330.82977594 -.00001061  00000+0 -81153-4 0  9997
2 55773  69.9985 123.8828 0003098 269.5232  90.5572 14.98325607151129
STARLINK-5812           
1 55774U 23028AK  25330.80889760  .00002447  00000+0  21276-3 0  9999
2 55774  69.9990 123.8120 0003805 279.3602  80.7127 14.98343499151123
STARLINK-5809           
1 55775U 23028AL  25330.80474492  .00001192  00000+0  10766-3 0  9990
2 55775  69.9987 123.7968 0003251 270.0790  89.9997 14.98332825151127
STARLINK-5810           
1 55776U 23028AM  25331.20136169  .01291948  41746-5  75932-3 0  9997
2 55776  69.9895 105.6766 0005414 287.8823  72.1806 16.18437597151609
STARLINK-5814           
1 55777U 23028AN  25330.86314522  .00000542  00000+0  53198-4 0  9990
2 55777  69.9987 123.5994 0002954 274.4588  85.6233 14.98338657151134
STARLINK-5816           
1 55778U 23028AP  25330.85897242 -.00000212  00000+0 -99408-5 0  9996
2 55778  69.9988 123.5850 0003033 273.3234  86.7578 14.98331678151132
STARLINK-5817           
1 55779U 23028AQ  25330.76276789  .00000063  00000+0  13101-4 0  9991
2 55779  69.9998 103.7707 0003069 269.8580  90.2227 14.98331940151614
STARLINK-5819           
1 55780U 23028AR  25330.85477719 -.00003496  00000+0 -28502-3 0  9994
2 55780  70.0010 123.5703 0001738 292.7472  67.3503 14.98374116151137
