[{"OBJECT_NAME":"STARLINK-5499","OBJECT_ID":"2023-028Z","EPOCH":"2025-11-26T20:06:54.247104","MEAN_MOTION":14.98331025,"ECCENTRICITY":0.0003055,"INCLINATION":69.9988,"RA_OF_ASC_NODE":123.9153,"ARG_OF_PERICENTER":268.9628,"MEAN_ANOMALY":91.1181,"EPHEMERIS_TYPE":0,"CLASSIFICATION_TYPE":"U","NORAD_CAT_ID":55764,"ELEMENT_SET_NO":999,"REV_AT_EPOCH":15112,"BSTAR":-1.5902e-5,"MEAN_MOTION_DOT":-2.83e-6,"MEAN_MOTION_DDOT":0},{"OBJECT_NAME":"STARLINK-5595","OBJECT_ID":"2023-028AA","EPOCH":"2025-11-26T20:12:56.341728","MEAN_MOTION":14.9832577,"ECCENTRICITY":0.0003083,"INCLINATION":69.9989,"RA_OF_ASC_NODE":123.9306,"ARG_OF_PERICENTER":268.0613,"MEAN_ANOMALY":92.0193,"EPHEMERIS_TYPE":0,"CLASSIFICATION_TYPE":"U","NORAD_CAT_ID":55765,"ELEMENT_SET_NO":999,"REV_AT_EPOCH":15112,"BSTAR":-3.7508e-5,"MEAN_MOTION_DOT":-5.4e-6,"MEAN_MOTION_DDOT":0},{"OBJECT_NAME":"STARLINK-5599","OBJECT_ID":"2023-028AB","EPOCH":"2025-11-26T19:36:50.870016","MEAN_MOTION":14.98337296,"ECCENTRICITY":0.0002983,"INCLINATION":69.9991,"RA_OF_ASC_NODE":123.8421,"ARG_OF_PERICENTER":268.4919,"MEAN_ANOMALY":91.5898,"EPHEMERIS_TYPE":0,"CLASSIFICATION_TYPE":"U","NORAD_CAT_ID":55766,"ELEMENT_SET_NO":999,"REV_AT_EPOCH":15112,"BSTAR":-5.0709e-5,"MEAN_MOTION_DOT":-6.98e-6,"MEAN_MOTION_DDOT":0},{"OBJECT_NAME":"STARLINK-5606","OBJECT_ID":"2023-028AC","EPOCH":"2025-11-26T20:18:55.414080","MEAN_MOTION":14.98331724,"ECCENTRICITY":0.0003078,"INCLINATION":69.9988,"RA_OF_ASC_NODE":123.9453,"ARG_OF_PERICENTER":270.7887,"MEAN_ANOMALY":89.2919,"EPHEMERIS_TYPE":0,"CLASSIFICATION_TYPE":"U","NORAD_CAT_ID":55767,"ELEMENT_SET_NO":999,"REV_AT_EPOCH":15110,"BSTAR":2.2933e-5,"MEAN_MOTION_DOT":1.81e-6,"MEAN_MOTION_DDOT":0},{"OBJECT_NAME":"STARLINK-5584","OBJECT_ID":"2023-028AE","EPOCH":"2025-11-26T19:48:52.481088","MEAN_MOTION":14.98342319,"ECCENTRICITY":0.0002965,"INCLINATION":69.9986,"RA_OF_ASC_NODE":123.8709,"ARG_OF_PERICENTER":269.8753,"MEAN_ANOMALY":90.2067,"EPHEMERIS_TYPE":0,"CLASSIFICATION_TYPE":"U","NORAD_CAT_ID":55769,"ELEMENT_SET_NO":999,"REV_AT_EPOCH":15112,"BSTAR":5.6391e-5,"MEAN_MOTION_DOT":5.8e-6,"MEAN_MOTION_DDOT":0},{"OBJECT_NAME":"STARLINK-5557","OBJECT_ID":"2023-028AF","EPOCH":"2025-11-26T19:42:51.992640","MEAN_MOTION":14.98333497,"ECCENTRICITY":0.0002756,"INCLINATION":69.9994,"RA_OF_ASC_NODE":123.8575,"ARG_OF_PERICENTER":267.797,"MEAN_ANOMALY":92.2873,"EPHEMERIS_TYPE":0,"CLASSIFICATION_TYPE":"U","NORAD_CAT_ID":55770,"ELEMENT_SET_NO":999,"REV_AT_EPOCH":15112,"BSTAR":3.7175e-5,"MEAN_MOTION_DOT":3.51e-6,"MEAN_MOTION_DDOT":0},{"OBJECT_NAME":"STARLINK-5591","OBJECT_ID":"2023-028AG","EPOCH":"2025-11-26T19:30:50.582880","MEAN_MOTION":14.98329902,"ECCENTRICITY":0.0002918,"INCLINATION":69.9988,"RA_OF_ASC_NODE":123.8265,"ARG_OF_PERICENTER":266.1023,"MEAN_ANOMALY":93.9802,"EPHEMERIS_TYPE":0,"CLASSIFICATION_TYPE":"U","NORAD_CAT_ID":55771,"ELEMENT_SET_NO":999,"REV_AT_EPOCH":15112,"BSTAR":-8.1495e-6,"MEAN_MOTION_DOT":-1.9e-6,"MEAN_MOTION_DDOT":0},{"OBJECT_NAME":"STARLINK-5835","OBJECT_ID":"2023-028AH","EPOCH":"2025-11-26T20:43:09.902784","MEAN_MOTION":14.9833386,"ECCENTRICITY":0.0002992,"INCLINATION":69.9988,"RA_OF_ASC_NODE":123.6007,"ARG_OF_PERICENTER":270.5122,"MEAN_ANOMALY":89.5694,"EPHEMERIS_TYPE":0,"CLASSIFICATION_TYPE":"U","NORAD_CAT_ID":55772,"ELEMENT_SET_NO":999,"REV_AT_EPOCH":15113,"BSTAR":1.5236e-5,"MEAN_MOTION_DOT":8.9e-7,"MEAN_MOTION_DDOT":0},{"OBJECT_NAME":"STARLINK-5833","OBJECT_ID":"2023-028AJ","EPOCH":"2025-11-26T19:54:52.641216","MEAN_MOTION":14.98325607,"ECCENTRICITY":0.0003098,"INCLINATION":69.9985,"RA_OF_ASC_NODE":123.8828,"ARG_OF_PERICENTER":269.5232,"MEAN_ANOMALY":90.5572,"EPHEMERIS_TYPE":0,"CLASSIFICATION_TYPE":"U","NORAD_CAT_ID":55773,"ELEMENT_SET_NO":999,"REV_AT_EPOCH":15112,"BSTAR":-8.1153e-5,"MEAN_MOTION_DOT":-1.061e-5,"MEAN_MOTION_DDOT":0},{"OBJECT_NAME":"STARLINK-5812","OBJECT_ID":"2023-028AK","EPOCH":"2025-11-26T19:24:48.752640","MEAN_MOTION":14.98343499,"ECCENTRICITY":0.0003805,"INCLINATION":69.999,"RA_OF_ASC_NODE":123.812,"ARG_OF_PERICENTER":279.3602,"MEAN_ANOMALY":80.7127,"EPHEMERIS_TYPE":0,"CLASSIFICATION_TYPE":"U","NORAD_CAT_ID":55774,"ELEMENT_SET_NO":999,"REV_AT_EPOCH":15112,"BSTAR":0.00021276,"MEAN_MOTION_DOT":2.447e-5,"MEAN_MOTION_DDOT":0},{"OBJECT_NAME":"STARLINK-5809","OBJECT_ID":"2023-028AL","EPOCH":"2025-11-26T19:18:49.961088","MEAN_MOTION":14.98332825,"ECCENTRICITY":0.0003251,"INCLINATION":69.9987,"RA_OF_ASC_NODE":123.7968,"ARG_OF_PERICENTER":270.079,"MEAN_ANOMALY":89.9997,"EPHEMERIS_TYPE":0,"CLASSIFICATION_TYPE":"U","NORAD_CAT_ID":55775,"ELEMENT_SET_NO":999,"REV_AT_EPOCH":15112,"BSTAR":0.00010766,"MEAN_MOTION_DOT":1.192e-5,"MEAN_MOTION_DDOT":0},{"OBJECT_NAME":"STARLINK-5810","OBJECT_ID":"2023-028AM","EPOCH":"2025-11-27T04:49:57.650016","MEAN_MOTION":16.18437597,"ECCENTRICITY":0.00054149,"INCLINATION":69.9895,"RA_OF_ASC_NODE":105.6766,"ARG_OF_PERICENTER":287.8823,"MEAN_ANOMALY":72.1806,"EPHEMERIS_TYPE":0,"CLASSIFICATION_TYPE":"U","NORAD_CAT_ID":55776,"ELEMENT_SET_NO":999,"REV_AT_EPOCH":15160,"BSTAR":0.00075931845,"MEAN_MOTION_DOT":0.01291948,"MEAN_MOTION_DDOT":4.174609e-6},{"OBJECT_NAME":"STARLINK-5814","OBJECT_ID":"2023-028AN","EPOCH":"2025-11-26T20:42:55.747008","MEAN_MOTION":14.98338657,"ECCENTRICITY":0.0002954,"INCLINATION":69.9987,"RA_OF_ASC_NODE":123.5994,"ARG_OF_PERICENTER":274.4588,"MEAN_ANOMALY":85.6233,"EPHEMERIS_TYPE":0,"CLASSIFICATION_TYPE":"U","NORAD_CAT_ID":55777,"ELEMENT_SET_NO":999,"REV_AT_EPOCH":15113,"BSTAR":5.3198e-5,"MEAN_MOTION_DOT":5.42e-6,"MEAN_MOTION_DDOT":0},{"OBJECT_NAME":"STARLINK-5816","OBJECT_ID":"2023-028AP","EPOCH":"2025-11-26T20:36:55.217088","MEAN_MOTION":14.98331678,"ECCENTRICITY":0.0003033,"INCLINATION":69.9988,"RA_OF_ASC_NODE":123.585,"ARG_OF_PERICENTER":273.3234,"MEAN_ANOMALY":86.7578,"EPHEMERIS_TYPE":0,"CLASSIFICATION_TYPE":"U","NORAD_CAT_ID":55778,"ELEMENT_SET_NO":999,"REV_AT_EPOCH":15113,"BSTAR":-9.9408e-6,"MEAN_MOTION_DOT":-2.12e-6,"MEAN_MOTION_DDOT":0},{"OBJECT_NAME":"STARLINK-5817","OBJECT_ID":"2023-028AQ","EPOCH":"2025-11-26T18:18:23.145696","MEAN_MOTION":14.9833194,"ECCENTRICITY":0.0003069,"INCLINATION":69.9998,"RA_OF_ASC_NODE":103.7707,"ARG_OF_PERICENTER":269.858,"MEAN_ANOMALY":90.2227,"EPHEMERIS_TYPE":0,"CLASSIFICATION_TYPE":"U","NORAD_CAT_ID":55779,"ELEMENT_SET_NO":999,"REV_AT_EPOCH":15161,"BSTAR":1.3100851e-5,"MEAN_MOTION_DOT":6.3e-7,"MEAN_MOTION_DDOT":0},{"OBJECT_NAME":"STARLINK-5819","OBJECT_ID":"2023-028AR","EPOCH":"2025-11-26T20:30:52.749216","MEAN_MOTION":14.98374116,"ECCENTRICITY":0.0001738,"INCLINATION":70.001,"RA_OF_ASC_NODE":123.5703,"ARG_OF_PERICENTER":292.7472,"MEAN_ANOMALY":67.3503,"EPHEMERIS_TYPE":0,"CLASSIFICATION_TYPE":"U","NORAD_CAT_ID":55780,"ELEMENT_SET_NO":999,"REV_AT_EPOCH":15113,"BSTAR":-0.00028502,"MEAN_MOTION_DOT":-3.496e-5,"MEAN_MOTION_DDOT":0}]
